STARLINK-35452          
1 66104U 25236U   25316.91668981 -.02073759  00000+0 -31635-1 0  9993
2 66104  53.1594 288.3785 0001382  86.9172  16.8130 15.57005243  5088
STARLINK-35561          
1 66105U 25236V   25316.91668981 -.02078554  00000+0 -31711-1 0  9997
2 66105  53.1592 288.3706 0001499  87.6788  19.8825 15.57008593  5029
STARLINK-35584          
1 66106U 25236W   25316.91668981 -.02072471  00000+0 -31613-1 0  9991
2 66106  53.1589 288.3657 0001514  90.2482  19.2324 15.57003791  5089
STARLINK-35593          
1 66107U 25236X   25316.91668981 -.02072552  00000+0 -31615-1 0  9994
2 66107  53.1591 288.3621 0001386  95.5836  15.8134 15.57004331  5084
STARLINK-35590          
1 66108U 25236Y   25316.91668981 -.02074293  00000+0 -31644-1 0  9991
2 66108  53.1589 288.3543 0001482  88.4244  26.8085 15.57003929  5029
STARLINK-35545          
1 66109U 25236Z   25316.91668981 -.02076748  00000+0 -31681-1 0  9990
2 66109  53.1589 288.3579 0001444  89.8883  23.4226 15.57008490  5085
STARLINK-35427          
1 66110U 25236AA  25316.91668981 -.02072081  00000+0 -31606-1 0  9995
2 66110  53.1590 288.3497 0001422  86.5608  30.5867 15.57004460  5086
STARLINK-35574          
1 66111U 25236AB  25316.91668981 -.02069293  00000+0 -31561-1 0  9997
2 66111  53.1592 288.3461 0001393  91.0934  27.9715 15.57002701  5022
STARLINK-35531          
1 66112U 25236AC  25316.91668981 -.02074650  00000+0 -31648-1 0  9997
2 66112  53.1591 288.3380 0001403  91.2262  31.6705 15.57006802  5083
STARLINK-35491          
1 66113U 25236AD  25316.91668981 -.02071888  00000+0 -31603-1 0  9999
2 66113  53.1589 288.3421 0001376  93.3095  27.6704 15.57005121  5080
STARLINK-35496          
1 66114U 25237A   25316.91668981 -.00560995  00000+0 -10686-1 0  9999
2 66114  53.1594 228.3548 0001270 119.4118 211.8441 15.49665140  4684
STARLINK-35428          
1 66115U 25237B   25316.91668981 -.00560491  00000+0 -10675-1 0  9999
2 66115  53.1593 228.3511 0001268 117.7863 215.3853 15.49665234  4689
