CCSDS_OMM_VERS = 2.0
CREATION_DATE  = 
ORIGINATOR     = 

OBJECT_NAME    = STARLINK-35452
OBJECT_ID      = 2025-236U
CENTER_NAME    = EARTH
REF_FRAME      = TEME
TIME_SYSTEM    = UTC
MEAN_ELEMENT_THEORY = SGP/SGP4

EPOCH          = 2025-11-12T22:00:01.999584
MEAN_MOTION    = 15.57005243
ECCENTRICITY   = .00013827
INCLINATION    = 53.1594
RA_OF_ASC_NODE = 288.3785
ARG_OF_PERICENTER = 86.9172
MEAN_ANOMALY   = 16.8130

EPHEMERIS_TYPE = 0
CLASSIFICATION_TYPE = U
NORAD_CAT_ID   = 66104
ELEMENT_SET_NO = 999
REV_AT_EPOCH   = 508
BSTAR          = -.31634596E-1
MEAN_MOTION_DOT = -.2073759E-1
MEAN_MOTION_DDOT = 0

CCSDS_OMM_VERS = 2.0
CREATION_DATE  = 
ORIGINATOR     = 

OBJECT_NAME    = STARLINK-35561
OBJECT_ID      = 2025-236V
CENTER_NAME    = EARTH
REF_FRAME      = TEME
TIME_SYSTEM    = UTC
MEAN_ELEMENT_THEORY = SGP/SGP4

EPOCH          = 2025-11-12T22:00:01.999584
MEAN_MOTION    = 15.57008593
ECCENTRICITY   = .00014992
INCLINATION    = 53.1592
RA_OF_ASC_NODE = 288.3706
ARG_OF_PERICENTER = 87.6788
MEAN_ANOMALY   = 19.8825

EPHEMERIS_TYPE = 0
CLASSIFICATION_TYPE = U
NORAD_CAT_ID   = 66105
ELEMENT_SET_NO = 999
REV_AT_EPOCH   = 502
BSTAR          = -.31711305E-1
MEAN_MOTION_DOT = -.2078554E-1
MEAN_MOTION_DDOT = 0

CCSDS_OMM_VERS = 2.0
CREATION_DATE  = 
ORIGINATOR     = 

OBJECT_NAME    = STARLINK-35584
OBJECT_ID      = 2025-236W
CENTER_NAME    = EARTH
REF_FRAME      = TEME
TIME_SYSTEM    = UTC
MEAN_ELEMENT_THEORY = SGP/SGP4

EPOCH          = 2025-11-12T22:00:01.999584
MEAN_MOTION    = 15.57003791
ECCENTRICITY   = .00015144
INCLINATION    = 53.1589
RA_OF_ASC_NODE = 288.3657
ARG_OF_PERICENTER = 90.2482
MEAN_ANOMALY   = 19.2324

EPHEMERIS_TYPE = 0
CLASSIFICATION_TYPE = U
NORAD_CAT_ID   = 66106
ELEMENT_SET_NO = 999
REV_AT_EPOCH   = 508
BSTAR          = -.31612797E-1
MEAN_MOTION_DOT = -.2072471E-1
MEAN_MOTION_DDOT = 0

CCSDS_OMM_VERS = 2.0
CREATION_DATE  = 
ORIGINATOR     = 

OBJECT_NAME    = STARLINK-35593
OBJECT_ID      = 2025-236X
CENTER_NAME    = EARTH
REF_FRAME      = TEME
TIME_SYSTEM    = UTC
MEAN_ELEMENT_THEORY = SGP/SGP4

EPOCH          = 2025-11-12T22:00:01.999584
MEAN_MOTION    = 15.57004331
ECCENTRICITY   = .00013869
INCLINATION    = 53.1591
RA_OF_ASC_NODE = 288.3621
ARG_OF_PERICENTER = 95.5836
MEAN_ANOMALY   = 15.8134

EPHEMERIS_TYPE = 0
CLASSIFICATION_TYPE = U
NORAD_CAT_ID   = 66107
ELEMENT_SET_NO = 999
REV_AT_EPOCH   = 508
BSTAR          = -.31615002E-1
MEAN_MOTION_DOT = -.2072552E-1
MEAN_MOTION_DDOT = 0

CCSDS_OMM_VERS = 2.0
CREATION_DATE  = 
ORIGINATOR     = 

OBJECT_NAME    = STARLINK-35590
OBJECT_ID      = 2025-236Y
CENTER_NAME    = EARTH
REF_FRAME      = TEME
TIME_SYSTEM    = UTC
MEAN_ELEMENT_THEORY = SGP/SGP4

EPOCH          = 2025-11-12T22:00:01.999584
MEAN_MOTION    = 15.57003929
ECCENTRICITY   = .00014821
INCLINATION    = 53.1589
RA_OF_ASC_NODE = 288.3543
ARG_OF_PERICENTER = 88.4244
MEAN_ANOMALY   = 26.8085

EPHEMERIS_TYPE = 0
CLASSIFICATION_TYPE = U
NORAD_CAT_ID   = 66108
ELEMENT_SET_NO = 999
REV_AT_EPOCH   = 502
BSTAR          = -.3164416E-1
MEAN_MOTION_DOT = -.2074293E-1
MEAN_MOTION_DDOT = 0

CCSDS_OMM_VERS = 2.0
CREATION_DATE  = 
ORIGINATOR     = 

OBJECT_NAME    = STARLINK-35545
OBJECT_ID      = 2025-236Z
CENTER_NAME    = EARTH
REF_FRAME      = TEME
TIME_SYSTEM    = UTC
MEAN_ELEMENT_THEORY = SGP/SGP4

EPOCH          = 2025-11-12T22:00:01.999584
MEAN_MOTION    = 15.57008490
ECCENTRICITY   = .00014442
INCLINATION    = 53.1589
RA_OF_ASC_NODE = 288.3579
ARG_OF_PERICENTER = 89.8883
MEAN_ANOMALY   = 23.4226

EPHEMERIS_TYPE = 0
CLASSIFICATION_TYPE = U
NORAD_CAT_ID   = 66109
ELEMENT_SET_NO = 999
REV_AT_EPOCH   = 508
BSTAR          = -.31681153E-1
MEAN_MOTION_DOT = -.2076748E-1
MEAN_MOTION_DDOT = 0

CCSDS_OMM_VERS = 2.0
CREATION_DATE  = 
ORIGINATOR     = 

OBJECT_NAME    = STARLINK-35427
OBJECT_ID      = 2025-236AA
CENTER_NAME    = EARTH
REF_FRAME      = TEME
TIME_SYSTEM    = UTC
MEAN_ELEMENT_THEORY = SGP/SGP4

EPOCH          = 2025-11-12T22:00:01.999584
MEAN_MOTION    = 15.57004460
ECCENTRICITY   = .00014222
INCLINATION    = 53.1590
RA_OF_ASC_NODE = 288.3497
ARG_OF_PERICENTER = 86.5608
MEAN_ANOMALY   = 30.5867

EPHEMERIS_TYPE = 0
CLASSIFICATION_TYPE = U
NORAD_CAT_ID   = 66110
ELEMENT_SET_NO = 999
REV_AT_EPOCH   = 508
BSTAR          = -.31606378E-1
MEAN_MOTION_DOT = -.2072081E-1
MEAN_MOTION_DDOT = 0

CCSDS_OMM_VERS = 2.0
CREATION_DATE  = 
ORIGINATOR     = 

OBJECT_NAME    = STARLINK-35574
OBJECT_ID      = 2025-236AB
CENTER_NAME    = EARTH
REF_FRAME      = TEME
TIME_SYSTEM    = UTC
MEAN_ELEMENT_THEORY = SGP/SGP4

EPOCH          = 2025-11-12T22:00:01.999584
MEAN_MOTION    = 15.57002701
ECCENTRICITY   = .00013933
INCLINATION    = 53.1592
RA_OF_ASC_NODE = 288.3461
ARG_OF_PERICENTER = 91.0934
MEAN_ANOMALY   = 27.9715

EPHEMERIS_TYPE = 0
CLASSIFICATION_TYPE = U
NORAD_CAT_ID   = 66111
ELEMENT_SET_NO = 999
REV_AT_EPOCH   = 502
BSTAR          = -.31561134E-1
MEAN_MOTION_DOT = -.2069293E-1
MEAN_MOTION_DDOT = 0

CCSDS_OMM_VERS = 2.0
CREATION_DATE  = 
ORIGINATOR     = 

OBJECT_NAME    = STARLINK-35531
OBJECT_ID      = 2025-236AC
CENTER_NAME    = EARTH
REF_FRAME      = TEME
TIME_SYSTEM    = UTC
MEAN_ELEMENT_THEORY = SGP/SGP4

EPOCH          = 2025-11-12T22:00:01.999584
MEAN_MOTION    = 15.57006802
ECCENTRICITY   = .00014036
INCLINATION    = 53.1591
RA_OF_ASC_NODE = 288.3380
ARG_OF_PERICENTER = 91.2262
MEAN_ANOMALY   = 31.6705

EPHEMERIS_TYPE = 0
CLASSIFICATION_TYPE = U
NORAD_CAT_ID   = 66112
ELEMENT_SET_NO = 999
REV_AT_EPOCH   = 508
BSTAR          = -.31647749E-1
MEAN_MOTION_DOT = -.207465E-1
MEAN_MOTION_DDOT = 0

CCSDS_OMM_VERS = 2.0
CREATION_DATE  = 
ORIGINATOR     = 

OBJECT_NAME    = STARLINK-35491
OBJECT_ID      = 2025-236AD
CENTER_NAME    = EARTH
REF_FRAME      = TEME
TIME_SYSTEM    = UTC
MEAN_ELEMENT_THEORY = SGP/SGP4

EPOCH          = 2025-11-12T22:00:01.999584
MEAN_MOTION    = 15.57005121
ECCENTRICITY   = .00013769
INCLINATION    = 53.1589
RA_OF_ASC_NODE = 288.3421
ARG_OF_PERICENTER = 93.3095
MEAN_ANOMALY   = 27.6704

EPHEMERIS_TYPE = 0
CLASSIFICATION_TYPE = U
NORAD_CAT_ID   = 66113
ELEMENT_SET_NO = 999
REV_AT_EPOCH   = 508
BSTAR          = -.31602808E-1
MEAN_MOTION_DOT = -.2071888E-1
MEAN_MOTION_DDOT = 0

CCSDS_OMM_VERS = 2.0
CREATION_DATE  = 
ORIGINATOR     = 

OBJECT_NAME    = STARLINK-35496
OBJECT_ID      = 2025-237A
CENTER_NAME    = EARTH
REF_FRAME      = TEME
TIME_SYSTEM    = UTC
MEAN_ELEMENT_THEORY = SGP/SGP4

EPOCH          = 2025-11-12T22:00:01.999584
MEAN_MOTION    = 15.49665140
ECCENTRICITY   = .00012704
INCLINATION    = 53.1594
RA_OF_ASC_NODE = 228.3548
ARG_OF_PERICENTER = 119.4118
MEAN_ANOMALY   = 211.8441

EPHEMERIS_TYPE = 0
CLASSIFICATION_TYPE = U
NORAD_CAT_ID   = 66114
ELEMENT_SET_NO = 999
REV_AT_EPOCH   = 468
BSTAR          = -.10685661E-1
MEAN_MOTION_DOT = -.560995E-2
MEAN_MOTION_DDOT = 0

CCSDS_OMM_VERS = 2.0
CREATION_DATE  = 
ORIGINATOR     = 

OBJECT_NAME    = STARLINK-35428
OBJECT_ID      = 2025-237B
CENTER_NAME    = EARTH
REF_FRAME      = TEME
TIME_SYSTEM    = UTC
MEAN_ELEMENT_THEORY = SGP/SGP4

EPOCH          = 2025-11-12T22:00:01.999584
MEAN_MOTION    = 15.49665234
ECCENTRICITY   = .00012684
INCLINATION    = 53.1593
RA_OF_ASC_NODE = 228.3511
ARG_OF_PERICENTER = 117.7863
MEAN_ANOMALY   = 215.3853

EPHEMERIS_TYPE = 0
CLASSIFICATION_TYPE = U
NORAD_CAT_ID   = 66115
ELEMENT_SET_NO = 999
REV_AT_EPOCH   = 468
BSTAR          = -.10675346E-1
MEAN_MOTION_DOT = -.560491E-2
MEAN_MOTION_DDOT = 0

